CCSDS_OMM_VERS = 2.0
CREATION_DATE  = 
ORIGINATOR     = 

OBJECT_NAME    = STARLINK-36623
OBJECT_ID      = 2026-020AD
CENTER_NAME    = EARTH
REF_FRAME      = TEME
TIME_SYSTEM    = UTC
MEAN_ELEMENT_THEORY = SGP/SGP4

EPOCH          = 2026-02-06T20:00:01.999008
MEAN_MOTION    = 15.93646330
ECCENTRICITY   = .0001697
INCLINATION    = 42.9995
RA_OF_ASC_NODE = 329.8521
ARG_OF_PERICENTER = 263.6959
MEAN_ANOMALY   = 125.8095

EPHEMERIS_TYPE = 0
CLASSIFICATION_TYPE = U
NORAD_CAT_ID   = 67644
ELEMENT_SET_NO = 999
REV_AT_EPOCH   = 243
BSTAR          = -.50461E-2
MEAN_MOTION_DOT = -.1881133E-1
MEAN_MOTION_DDOT = .97962E-3

CCSDS_OMM_VERS = 2.0
CREATION_DATE  = 
ORIGINATOR     = 

OBJECT_NAME    = STARLINK-36619
OBJECT_ID      = 2026-020AE
CENTER_NAME    = EARTH
REF_FRAME      = TEME
TIME_SYSTEM    = UTC
MEAN_ELEMENT_THEORY = SGP/SGP4

EPOCH          = 2026-02-06T20:00:01.999008
MEAN_MOTION    = 15.93483076
ECCENTRICITY   = .0001713
INCLINATION    = 42.9996
RA_OF_ASC_NODE = 329.8587
ARG_OF_PERICENTER = 260.1804
MEAN_ANOMALY   = 126.7947

EPHEMERIS_TYPE = 0
CLASSIFICATION_TYPE = U
NORAD_CAT_ID   = 67645
ELEMENT_SET_NO = 999
REV_AT_EPOCH   = 243
BSTAR          = -.51076E-2
MEAN_MOTION_DOT = -.188758E-1
MEAN_MOTION_DDOT = .98426E-3

CCSDS_OMM_VERS = 2.0
CREATION_DATE  = 
ORIGINATOR     = 

OBJECT_NAME    = ALSAT-3B
OBJECT_ID      = 2026-021A
CENTER_NAME    = EARTH
REF_FRAME      = TEME
TIME_SYSTEM    = UTC
MEAN_ELEMENT_THEORY = SGP/SGP4

EPOCH          = 2026-02-06T18:42:52.500384
MEAN_MOTION    = 15.23475935
ECCENTRICITY   = .0011462
INCLINATION    = 97.4723
RA_OF_ASC_NODE = 112.2483
ARG_OF_PERICENTER = 240.8338
MEAN_ANOMALY   = 119.1753

EPHEMERIS_TYPE = 0
CLASSIFICATION_TYPE = U
NORAD_CAT_ID   = 67646
ELEMENT_SET_NO = 999
REV_AT_EPOCH   = 101
BSTAR          = .34693E-3
MEAN_MOTION_DOT = .8218E-4
MEAN_MOTION_DDOT = 0

CCSDS_OMM_VERS = 2.0
CREATION_DATE  = 
ORIGINATOR     = 

OBJECT_NAME    = CZ-2C R/B
OBJECT_ID      = 2026-021B
CENTER_NAME    = EARTH
REF_FRAME      = TEME
TIME_SYSTEM    = UTC
MEAN_ELEMENT_THEORY = SGP/SGP4

EPOCH          = 2026-02-06T18:45:39.897792
MEAN_MOTION    = 15.23221995
ECCENTRICITY   = .0154152
INCLINATION    = 97.6564
RA_OF_ASC_NODE = 112.6270
ARG_OF_PERICENTER = 118.5464
MEAN_ANOMALY   = 243.1388

EPHEMERIS_TYPE = 0
CLASSIFICATION_TYPE = U
NORAD_CAT_ID   = 67647
ELEMENT_SET_NO = 999
REV_AT_EPOCH   = 99
BSTAR          = .48935E-3
MEAN_MOTION_DOT = .16129E-3
MEAN_MOTION_DDOT = 0

CCSDS_OMM_VERS = 2.0
CREATION_DATE  = 
ORIGINATOR     = 

OBJECT_NAME    = STARLINK-36719
OBJECT_ID      = 2026-022A
CENTER_NAME    = EARTH
REF_FRAME      = TEME
TIME_SYSTEM    = UTC
MEAN_ELEMENT_THEORY = SGP/SGP4

EPOCH          = 2026-02-06T20:00:01.999008
MEAN_MOTION    = 16.03644875
ECCENTRICITY   = .0001332
INCLINATION    = 97.2833
RA_OF_ASC_NODE = 70.0786
ARG_OF_PERICENTER = 74.7664
MEAN_ANOMALY   = 74.5899

EPHEMERIS_TYPE = 0
CLASSIFICATION_TYPE = U
NORAD_CAT_ID   = 67648
ELEMENT_SET_NO = 999
REV_AT_EPOCH   = 193
BSTAR          = -.21573E-2
MEAN_MOTION_DOT = -.1341734E-1
MEAN_MOTION_DDOT = .58887E-3

CCSDS_OMM_VERS = 2.0
CREATION_DATE  = 
ORIGINATOR     = 

OBJECT_NAME    = STARLINK-36342
OBJECT_ID      = 2026-022B
CENTER_NAME    = EARTH
REF_FRAME      = TEME
TIME_SYSTEM    = UTC
MEAN_ELEMENT_THEORY = SGP/SGP4

EPOCH          = 2026-02-06T20:00:01.999008
MEAN_MOTION    = 16.03754157
ECCENTRICITY   = .0001456
INCLINATION    = 97.2832
RA_OF_ASC_NODE = 70.0788
ARG_OF_PERICENTER = 73.4560
MEAN_ANOMALY   = 76.7886

EPHEMERIS_TYPE = 0
CLASSIFICATION_TYPE = U
NORAD_CAT_ID   = 67649
ELEMENT_SET_NO = 999
REV_AT_EPOCH   = 193
BSTAR          = -.21364E-2
MEAN_MOTION_DOT = -.1337476E-1
MEAN_MOTION_DDOT = .58617E-3

CCSDS_OMM_VERS = 2.0
CREATION_DATE  = 
ORIGINATOR     = 

OBJECT_NAME    = STARLINK-36703
OBJECT_ID      = 2026-022C
CENTER_NAME    = EARTH
REF_FRAME      = TEME
TIME_SYSTEM    = UTC
MEAN_ELEMENT_THEORY = SGP/SGP4

EPOCH          = 2026-02-06T20:00:01.999008
MEAN_MOTION    = 16.03895781
ECCENTRICITY   = .0001414
INCLINATION    = 97.2831
RA_OF_ASC_NODE = 70.0793
ARG_OF_PERICENTER = 67.7114
MEAN_ANOMALY   = 83.5589

EPHEMERIS_TYPE = 0
CLASSIFICATION_TYPE = U
NORAD_CAT_ID   = 67650
ELEMENT_SET_NO = 999
REV_AT_EPOCH   = 193
BSTAR          = -.21076E-2
MEAN_MOTION_DOT = -.1330661E-1
MEAN_MOTION_DDOT = .58162E-3

CCSDS_OMM_VERS = 2.0
CREATION_DATE  = 
ORIGINATOR     = 

OBJECT_NAME    = STARLINK-36696
OBJECT_ID      = 2026-022D
CENTER_NAME    = EARTH
REF_FRAME      = TEME
TIME_SYSTEM    = UTC
MEAN_ELEMENT_THEORY = SGP/SGP4

EPOCH          = 2026-02-06T20:00:01.999008
MEAN_MOTION    = 16.04046356
ECCENTRICITY   = .0001401
INCLINATION    = 97.2829
RA_OF_ASC_NODE = 70.0796
ARG_OF_PERICENTER = 70.6074
MEAN_ANOMALY   = 81.7201

EPHEMERIS_TYPE = 0
CLASSIFICATION_TYPE = U
NORAD_CAT_ID   = 67651
ELEMENT_SET_NO = 999
REV_AT_EPOCH   = 193
BSTAR          = -.2078E-2
MEAN_MOTION_DOT = -.132384E-1
MEAN_MOTION_DDOT = .57715E-3

CCSDS_OMM_VERS = 2.0
CREATION_DATE  = 
ORIGINATOR     = 

OBJECT_NAME    = STARLINK-36699
OBJECT_ID      = 2026-022E
CENTER_NAME    = EARTH
REF_FRAME      = TEME
TIME_SYSTEM    = UTC
MEAN_ELEMENT_THEORY = SGP/SGP4

EPOCH          = 2026-02-06T20:00:01.999008
MEAN_MOTION    = 16.04169854
ECCENTRICITY   = .0001307
INCLINATION    = 97.2830
RA_OF_ASC_NODE = 70.0801
ARG_OF_PERICENTER = 71.5503
MEAN_ANOMALY   = 81.7347

EPHEMERIS_TYPE = 0
CLASSIFICATION_TYPE = U
NORAD_CAT_ID   = 67652
ELEMENT_SET_NO = 999
REV_AT_EPOCH   = 193
BSTAR          = -.20465E-2
MEAN_MOTION_DOT = -.1313472E-1
MEAN_MOTION_DDOT = .56964E-3

CCSDS_OMM_VERS = 2.0
CREATION_DATE  = 
ORIGINATOR     = 

OBJECT_NAME    = STARLINK-36694
OBJECT_ID      = 2026-022F
CENTER_NAME    = EARTH
REF_FRAME      = TEME
TIME_SYSTEM    = UTC
MEAN_ELEMENT_THEORY = SGP/SGP4

EPOCH          = 2026-02-06T20:00:01.999008
MEAN_MOTION    = 16.04329749
ECCENTRICITY   = .0001239
INCLINATION    = 97.2830
RA_OF_ASC_NODE = 70.0807
ARG_OF_PERICENTER = 79.3975
MEAN_ANOMALY   = 75.0145

EPHEMERIS_TYPE = 0
CLASSIFICATION_TYPE = U
NORAD_CAT_ID   = 67653
ELEMENT_SET_NO = 999
REV_AT_EPOCH   = 193
BSTAR          = -.20006E-2
MEAN_MOTION_DOT = -.1296526E-1
MEAN_MOTION_DDOT = .55717E-3

CCSDS_OMM_VERS = 2.0
CREATION_DATE  = 
ORIGINATOR     = 

OBJECT_NAME    = STARLINK-36620
OBJECT_ID      = 2026-022G
CENTER_NAME    = EARTH
REF_FRAME      = TEME
TIME_SYSTEM    = UTC
MEAN_ELEMENT_THEORY = SGP/SGP4

EPOCH          = 2026-02-06T20:00:01.999008
MEAN_MOTION    = 16.04475479
ECCENTRICITY   = .0001287
INCLINATION    = 97.2828
RA_OF_ASC_NODE = 70.0810
ARG_OF_PERICENTER = 71.3151
MEAN_ANOMALY   = 84.1206

EPHEMERIS_TYPE = 0
CLASSIFICATION_TYPE = U
NORAD_CAT_ID   = 67654
ELEMENT_SET_NO = 999
REV_AT_EPOCH   = 193
BSTAR          = -.19807E-2
MEAN_MOTION_DOT = -.1294888E-1
MEAN_MOTION_DDOT = .55684E-3

CCSDS_OMM_VERS = 2.0
CREATION_DATE  = 
ORIGINATOR     = 

OBJECT_NAME    = STARLINK-36720
OBJECT_ID      = 2026-022H
CENTER_NAME    = EARTH
REF_FRAME      = TEME
TIME_SYSTEM    = UTC
MEAN_ELEMENT_THEORY = SGP/SGP4

EPOCH          = 2026-02-06T20:00:01.999008
MEAN_MOTION    = 16.04645192
ECCENTRICITY   = .0001219
INCLINATION    = 97.2829
RA_OF_ASC_NODE = 70.0813
ARG_OF_PERICENTER = 78.0277
MEAN_ANOMALY   = 78.5414

EPHEMERIS_TYPE = 0
CLASSIFICATION_TYPE = U
NORAD_CAT_ID   = 67655
ELEMENT_SET_NO = 999
REV_AT_EPOCH   = 193
BSTAR          = -.19558E-2
MEAN_MOTION_DOT = -.129173E-1
MEAN_MOTION_DDOT = .55545E-3

