STARLINK-36623          
1 67644U 26020AD  26037.83335647 -.01881133  97962-3 -50461-2 0  9995
2 67644  42.9995 329.8521 0001697 263.6959 125.8095 15.93646330  2439
STARLINK-36619          
1 67645U 26020AE  26037.83335647 -.01887580  98426-3 -51076-2 0  9997
2 67645  42.9996 329.8587 0001713 260.1804 126.7947 15.93483076  2435
ALSAT-3B                
1 67646U 26021A   26037.77977431  .00008218  00000+0  34693-3 0  9999
2 67646  97.4723 112.2483 0011462 240.8338 119.1753 15.23475935  1019
CZ-2C R/B               
1 67647U 26021B   26037.78171178  .00016129  00000+0  48935-3 0  9999
2 67647  97.6564 112.6270 0154152 118.5464 243.1388 15.23221995   991
STARLINK-36719          
1 67648U 26022A   26037.83335647 -.01341734  58887-3 -21573-2 0  9994
2 67648  97.2833  70.0786 0001332  74.7664  74.5899 16.03644875  1935
STARLINK-36342          
1 67649U 26022B   26037.83335647 -.01337476  58617-3 -21364-2 0  9992
2 67649  97.2832  70.0788 0001456  73.4560  76.7886 16.03754157  1930
STARLINK-36703          
1 67650U 26022C   26037.83335647 -.01330661  58162-3 -21076-2 0  9998
2 67650  97.2831  70.0793 0001414  67.7114  83.5589 16.03895781  1937
STARLINK-36696          
1 67651U 26022D   26037.83335647 -.01323840  57715-3 -20780-2 0  9994
2 67651  97.2829  70.0796 0001401  70.6074  81.7201 16.04046356  1930
STARLINK-36699          
1 67652U 26022E   26037.83335647 -.01313472  56964-3 -20465-2 0  9990
2 67652  97.2830  70.0801 0001307  71.5503  81.7347 16.04169854  1932
STARLINK-36694          
1 67653U 26022F   26037.83335647 -.01296526  55717-3 -20006-2 0  9997
2 67653  97.2830  70.0807 0001239  79.3975  75.0145 16.04329749  1935
STARLINK-36620          
1 67654U 26022G   26037.83335647 -.01294888  55684-3 -19807-2 0  9997
2 67654  97.2828  70.0810 0001287  71.3151  84.1206 16.04475479  1939
STARLINK-36720          
1 67655U 26022H   26037.83335647 -.01291730  55545-3 -19558-2 0  9990
2 67655  97.2829  70.0813 0001219  78.0277  78.5414 16.04645192  1931
